JILIN-1 GAOFEN 3A       
1 44312U 19032C   26157.19953093  .00015766  00000+0  50291-3 0  9993
2 44312  44.9747  57.3974 0006126 243.9706 116.0548 15.32385860386151
WT 1B                   
1 44316U 19032G   26157.27512963  .00012277  00000+0  46492-3 0  9995
2 44316  44.9731 120.4911 0008966 192.3707 167.6956 15.26967219385413
PROX-1                  
1 44339U 19036A   26156.40826777  .00011221  00000+0  10974-2 0  9992
2 44339  23.9935 192.9205 0005366 253.7841 106.2068 14.90320876371716
NPSAT1                  
1 44340U 19036B   26156.68051604  .00006035  00000+0  85168-3 0  9998
2 44340  23.9996 292.6960 0008005  78.9597 281.1799 14.74475870370797
FORMOSAT 7-3            
1 44343U 19036E   26156.94845692  .00005501  00000+0  31132-3 0  9997
2 44343  23.9992 255.8921 0001077 119.0611 241.0000 15.09723518381549
FORMOSAT 7-1            
1 44349U 19036L   26157.17832772  .00003169  00000+0  24648-3 0  9996
2 44349  23.9973 106.6071 0001038  67.6552 292.4059 14.96458660383007
FORMOSAT 7-4            
1 44350U 19036M   26155.86715852  .00002832  00000+0  21760-3 0  9999
2 44350  23.9966 177.5555 0001423  61.1181 298.9462 14.96447121382222
FORMOSAT 7-2            
1 44351U 19036N   26153.48903091  .00002998  00000+0  23194-3 0  9996
2 44351  23.9983 247.9036 0000776  45.2979 314.7584 14.96438939381381
FORMOSAT 7-6            
1 44353U 19036Q   26152.15525985  .00002998  00000+0  23203-3 0  9994
2 44353  23.9983  77.7033 0000762 267.9175  92.1238 14.96433653379417
FORMOSAT 7-5            
1 44358U 19036V   26156.20006696  .00002972  00000+0  22959-3 0  9991
2 44358  24.0004 349.1900 0000526  52.5110 307.5438 14.96462948380553
METEOR-M2 2             
1 44387U 19038A   26157.28626073  .00000259  00000+0  13188-3 0  9991
2 44387  98.9146 144.4114 0002347  63.8388 296.3031 14.24363860359745
GLOBAL-4                
1 44499U 19054E   26156.70796747  .00054542  00000+0  57991-3 0  9999
2 44499  45.0066 302.5843 0006295 270.8498  89.1677 15.63265092378564
ZY-1 02D                
1 44528U 19059A   26157.26513409  .00000196  00000+0  82807-4 0  9992
2 44528  98.3187 219.1363 0002104 122.2951 237.8439 14.35456803352774
TAURUS-1 (JINNIUZUO 1)  
1 44530U 19059C   26157.29909847  .00007177  00000+0  11513-2 0  9993
2 44530  98.6417 321.4529 0007985 354.4830   5.6286 14.71979883357048
ZHUHAI-1 03B            
1 44536U 19060C   26157.23518140  .00041127  00000+0  64688-3 0  9992
2 44536  97.5523 314.4153 0008027   3.1839 356.9464 15.53471091374622
ZHUHAI-1 03D            
1 44538U 19060E   26157.24492944  .00039852  00000+0  73179-3 0  9995
2 44538  97.5386 306.6430 0006993 346.4332  13.6729 15.49123694374385
ZHUHAI-1 03E            
1 44539U 19060F   26157.26876740  .00023399  00000+0  57369-3 0  9990
2 44539  97.5605 306.8416 0006739  68.5454 291.6510 15.40706830374084
GAOFEN-7                
1 44703U 19072A   26157.28187280  .00004943  00000+0  22161-3 0  9998
2 44703  97.2428 219.1576 0018111  76.1420 284.1830 15.21518301365989
JILIN-1 GAOFEN 2A       
1 44777U 19075A   26157.21304123  .00017715  00000+0  45979-3 0  9995
2 44777  97.4960 240.7492 0007619 119.2950 240.9057 15.39017409363192
NINGXIA-1 1             
1 44779U 19076A   26157.27913023 -.00000097  00000+0  21134-4 0  9993
2 44779  45.0047 228.5989 0010153 109.0839 251.1096 14.02037335336325
NINGXIA-1 5             
1 44783U 19076E   26157.29279413 -.00000118  00000+0  80633-5 0  9992
2 44783  45.0047 227.8828 0009817  97.5657 262.6292 14.02085434336247
KL-ALPHA A              
1 44785U 19077A   26157.27337309  .00000040  00000+0  38962-4 0  9992
2 44785  88.9255 223.7574 0012634 133.1317 227.0896 13.56042193324256
CARTOSAT-3              
1 44804U 19081A   26157.15798384  .00005707  00000+0  27384-3 0  9990
2 44804  97.4306 219.2022 0012203 185.2579 174.8530 15.19205200361793
JILIN-1 GAOFEN 2B       
1 44836U 19086A   26157.15807895  .00008329  00000+0  38225-3 0  9997
2 44836  97.4878 229.2190 0013868   4.7966 355.3400 15.20589067358811
TIANQIN 1 (CAS-6)       
1 44879U 19093A   26157.24940035  .00003914  00000+0  35914-3 0  9993
2 44879  97.7800 241.1691 0012936  90.4472 269.8231 14.95383803350414
ETRSS-1                 
1 44880U 19093B   26157.25934287  .00004955  00000+0  44828-3 0  9998
2 44880  97.7823 241.6286 0013167  90.4540 269.8189 14.95811823350420
TIANYAN 01              
1 44881U 19093C   26157.27466764  .00000591  00000+0  72739-4 0  9996
2 44881  97.7529 229.7724 0014739 119.2892 240.9799 14.86499279349796
TIANYAN 02              
1 44882U 19093D   26157.28335758  .00009526  00000+0  67224-3 0  9995
2 44882  97.7919 251.9699 0014525  63.4257 296.8455 15.05088838350974
