OBJECT_NAME,OBJECT_ID,EPOCH,MEAN_MOTION,ECCENTRICITY,INCLINATION,RA_OF_ASC_NODE,ARG_OF_PERICENTER,MEAN_ANOMALY,EPHEMERIS_TYPE,CLASSIFICATION_TYPE,NORAD_CAT_ID,ELEMENT_SET_NO,REV_AT_EPOCH,BSTAR,MEAN_MOTION_DOT,MEAN_MOTION_DDOT
JILIN-1 GAOFEN 3A,2019-032C,2026-06-06T04:47:19.472352,15.32385860,.00061265,44.9747,57.3974,243.9706,116.0548,0,U,44312,999,38615,.50291407E-3,.15766E-3,0
WT 1B,2019-032G,2026-06-06T06:36:11.200032,15.26967219,.00089664,44.9731,120.4911,192.3707,167.6956,0,U,44316,999,38541,.46492426E-3,.12277E-3,0
PROX-1,2019-036A,2026-06-05T09:47:54.335328,14.90320876,.00053665,23.9935,192.9205,253.7841,106.2068,0,U,44339,999,37171,.10974295E-2,.11221E-3,0
NPSAT1,2019-036B,2026-06-05T16:19:56.585856,14.74475870,.00080052,23.9996,292.6960,78.9597,281.1799,0,U,44340,999,37079,.85167651E-3,.6035E-4,0
FORMOSAT 7-3,2019-036E,2026-06-05T22:45:46.677888,15.09723518,.00010775,23.9992,255.8921,119.0611,241.0000,0,U,44343,999,38154,.31131732E-3,.5501E-4,0
FORMOSAT 7-1,2019-036L,2026-06-06T04:16:47.515008,14.96458660,.00010386,23.9973,106.6071,67.6552,292.4059,0,U,44349,999,38300,.24648186E-3,.3169E-4,0
FORMOSAT 7-4,2019-036M,2026-06-04T20:48:42.496128,14.96447121,.00014233,23.9966,177.5555,61.1181,298.9462,0,U,44350,999,38222,.21759927E-3,.2832E-4,0
FORMOSAT 7-2,2019-036N,2026-06-02T11:44:12.270624,14.96438939,.0000776,23.9983,247.9036,45.2979,314.7584,0,U,44351,999,38138,.23194E-3,.2998E-4,0
FORMOSAT 7-6,2019-036Q,2026-06-01T03:43:34.451040,14.96433653,.00007625,23.9983,77.7033,267.9175,92.1238,0,U,44353,999,37941,.23202823E-3,.2998E-4,0
FORMOSAT 7-5,2019-036V,2026-06-05T04:48:05.785344,14.96462948,.0000526,24.0004,349.1900,52.5110,307.5438,0,U,44358,999,38055,.22959E-3,.2972E-4,0
METEOR-M2 2,2019-038A,2026-06-06T06:52:12.927072,14.24363860,.0002347,98.9146,144.4114,63.8388,296.3031,0,U,44387,999,35974,.13187758E-3,.259E-5,0
GLOBAL-4,2019-054E,2026-06-05T16:59:28.389408,15.63265092,.00062952,45.0066,302.5843,270.8498,89.1677,0,U,44499,999,37856,.57990844E-3,.54542E-3,0
ZY-1 02D,2019-059A,2026-06-06T06:21:47.585376,14.35456803,.0002104,98.3187,219.1363,122.2951,237.8439,0,U,44528,999,35277,.82807291E-4,.196E-5,0
TAURUS-1 (JINNIUZUO 1),2019-059C,2026-06-06T07:10:42.107808,14.71979883,.0007985,98.6417,321.4529,354.4830,5.6286,0,U,44530,999,35704,.11513118E-2,.7177E-4,0
ZHUHAI-1 03B,2019-060C,2026-06-06T05:38:39.672960,15.53471091,.00080271,97.5523,314.4153,3.1839,356.9464,0,U,44536,999,37462,.64688308E-3,.41127E-3,0
ZHUHAI-1 03D,2019-060E,2026-06-06T05:52:41.903616,15.49123694,.00069936,97.5386,306.6430,346.4332,13.6729,0,U,44538,999,37438,.73178721E-3,.39852E-3,0
ZHUHAI-1 03E,2019-060F,2026-06-06T06:27:01.503360,15.40706830,.00067392,97.5605,306.8416,68.5454,291.6510,0,U,44539,999,37408,.57369245E-3,.23399E-3,0
GAOFEN-7,2019-072A,2026-06-06T06:45:53.809920,15.21518301,.00181112,97.2428,219.1576,76.1420,284.1830,0,U,44703,999,36598,.22161387E-3,.4943E-4,0
JILIN-1 GAOFEN 2A,2019-075A,2026-06-06T05:06:46.762272,15.39017409,.00076191,97.4960,240.7492,119.2950,240.9057,0,U,44777,999,36319,.45979061E-3,.17715E-3,0
NINGXIA-1 1,2019-076A,2026-06-06T06:41:56.851872,14.02037335,.00101538,45.0047,228.5989,109.0839,251.1096,0,U,44779,999,33632,.21133799E-4,-.97E-6,0
NINGXIA-1 5,2019-076E,2026-06-06T07:01:37.412832,14.02085434,.00098176,45.0047,227.8828,97.5657,262.6292,0,U,44783,999,33624,.8063298E-5,-.118E-5,0
KL-ALPHA A,2019-077A,2026-06-06T06:33:39.434976,13.56042193,.00126345,88.9255,223.7574,133.1317,227.0896,0,U,44785,999,32425,.38962412E-4,.4E-6,0
CARTOSAT-3,2019-081A,2026-06-06T03:47:29.803776,15.19205200,.00122032,97.4306,219.2022,185.2579,174.8530,0,U,44804,999,36179,.27383894E-3,.5707E-4,0
JILIN-1 GAOFEN 2B,2019-086A,2026-06-06T03:47:38.021280,15.20589067,.00138688,97.4878,229.2190,4.7966,355.3400,0,U,44836,999,35881,.3822482E-3,.8329E-4,0
TIANQIN 1 (CAS-6),2019-093A,2026-06-06T05:59:08.190240,14.95383803,.00129369,97.7800,241.1691,90.4472,269.8231,0,U,44879,999,35041,.35914066E-3,.3914E-4,0
ETRSS-1,2019-093B,2026-06-06T06:13:27.223968,14.95811823,.00131679,97.7823,241.6286,90.4540,269.8189,0,U,44880,999,35042,.44827666E-3,.4955E-4,0
TIANYAN 01,2019-093C,2026-06-06T06:35:31.284096,14.86499279,.00147392,97.7529,229.7724,119.2892,240.9799,0,U,44881,999,34979,.72739464E-4,.591E-5,0
TIANYAN 02,2019-093D,2026-06-06T06:48:02.094912,15.05088838,.00145257,97.7919,251.9699,63.4257,296.8455,0,U,44882,999,35097,.67223856E-3,.9526E-4,0
